OBJECT_NAME,OBJECT_ID,EPOCH,MEAN_MOTION,ECCENTRICITY,INCLINATION,RA_OF_ASC_NODE,ARG_OF_PERICENTER,MEAN_ANOMALY,EPHEMERIS_TYPE,CLASSIFICATION_TYPE,NORAD_CAT_ID,ELEMENT_SET_NO,REV_AT_EPOCH,BSTAR,MEAN_MOTION_DOT,MEAN_MOTION_DDOT
SAUDICOMSAT 2,2004-025E,2026-07-04T00:45:39.220416,14.49990206,.00548586,98.6639,197.7542,207.6478,152.1795,0,U,28370,999,16254,.80818151E-4,.269E-5,0
SAUDISAT 2,2004-025F,2026-07-04T06:28:41.048256,14.56693820,.00235565,98.5512,185.6936,243.0600,116.8191,0,U,28371,999,16823,.7954649E-4,.307E-5,0
APRIZESAT 1,2004-025G,2026-07-03T20:03:32.364864,14.51787039,.00457474,98.6304,196.0144,104.2953,256.3328,0,U,28372,999,16432,.95785256E-4,.341E-5,0
AURA,2004-026A,2026-07-04T02:29:28.819392,14.61355294,.00011855,98.3424,141.6979,87.2387,272.8949,0,U,28376,999,16868,.19598692E-3,.92E-5,0
ANIK F2,2004-027A,2026-07-04T04:20:17.034144,1.00271793,.00039982,3.3286,79.2232,22.1388,134.7828,0,U,28378,999,4143,0,-.39E-6,0
COSMOS 2407,2004-028A,2026-07-03T18:55:53.589216,13.76335930,.00385437,82.9595,62.5378,204.1814,228.5597,0,U,28380,999,10216,.4256614E-4,.57E-6,0
SHIJIAN-6 01A (SJ-6 01A),2004-035A,2026-07-04T00:56:49.016544,15.18249046,.00078118,97.5849,212.1892,83.2171,276.9951,0,U,28413,999,19002,.47371838E-3,.9644E-4,0
SHIJIAN-6 01B (SJ-6 01B),2004-035B,2026-07-04T07:44:50.263008,15.06450851,.00063766,97.6047,202.9699,85.3313,274.8642,0,U,28414,999,18940,.3263574E-3,.4755E-4,0
COSMOS 2408,2004-037A,2026-07-04T06:38:15.565056,12.45680609,.00153242,82.4875,315.1573,228.1612,131.8162,0,U,28419,999,99003,.27661701E-3,.5E-6,0
COSMOS 2409,2004-037B,2026-07-04T07:43:40.462176,12.45323891,.00128042,82.4876,318.3627,239.5154,120.4664,0,U,28420,999,98968,.65480076E-3,.103E-5,0
AMC-15,2004-041A,2026-07-02T15:11:36.377952,1.00271839,.00024834,0.0151,352.5863,110.1812,300.7536,0,U,28446,999,7945,0,-.78E-6,0
JB-3 3 (ZY 2C),2004-044A,2026-07-03T15:49:35.759424,15.19451622,.00337517,97.2787,337.6535,160.6244,199.6283,0,U,28470,999,19028,.2266674E-3,.481E-4,0
NAVSTAR 56 (USA 180),2004-045A,2026-07-03T18:00:25.647840,2.00556712,.01700019,55.1258,324.2295,316.7952,40.0341,0,U,28474,999,15875,0,-.71E-6,0
SWIFT,2004-047A,2026-07-03T23:17:18.238272,15.70001988,.00008442,20.5532,55.2849,198.0974,161.9442,0,U,28485,999,18950,.54591173E-3,.70231E-3,0
NANOSAT-1,2004-049B,2026-07-03T19:10:15.641760,14.80193523,.00029854,98.2298,321.8678,225.9048,134.1918,0,U,28493,999,15790,.16855698E-3,.1225E-4,0
COSMOS 2414,2005-002A,2026-07-03T19:54:12.100608,13.87927397,.00387187,82.9488,31.0557,282.4757,77.2075,0,U,28521,999,8612,.16929684E-4,.36E-6,0
NSS-10,2005-003A,2026-07-04T03:54:26.322624,1.00272469,.0002999,6.4892,70.2484,30.9126,202.1771,0,U,28526,999,5332,0,-.242E-5,0
INMARSAT 4-F1,2005-009A,2026-07-03T21:37:28.528032,1.00271768,.00028742,5.1885,42.7715,63.3071,318.3239,0,U,28628,999,7784,0,.42E-6,0
IRS-P5 (CARTOSAT-1),2005-017A,2026-07-04T01:21:23.067936,14.91095228,.0002033,97.5304,207.3557,60.3852,299.7569,0,U,28649,999,14633,.16347255E-3,.1567E-4,0
DIRECTV 8,2005-019A,2026-07-04T04:46:03.472320,1.00269824,.00032502,0.0198,38.7782,79.7793,116.1235,0,U,28659,999,7724,0,0,0
GALAXY 28 (G-28),2005-022A,2026-07-02T18:59:10.716000,1.00270423,.0002601,3.3367,78.7516,16.9040,82.8679,0,U,28702,999,5213,0,-.191E-5,0
SJ-7,2005-024A,2026-07-03T14:18:34.033536,15.21792411,.00145482,97.7273,215.1431,340.9960,19.0731,0,U,28737,999,15052,.37976069E-3,.8571E-4,0
THAICOM 4,2005-028A,2026-07-03T14:30:13.190976,1.00270409,.00018534,0.2853,85.6829,5.7099,167.2954,0,U,28786,999,5241,0,-.351E-5,0
REIMEI (INDEX),2005-031B,2026-07-04T06:40:37.148736,15.11088215,.00203981,98.0168,310.0996,56.5963,303.7213,0,U,28810,999,13357,.40387595E-3,.6725E-4,0
ANIK F1R,2005-036A,2026-07-04T04:49:25.648320,1.00271907,.00041837,4.3534,76.3730,16.2092,154.6908,0,U,28868,999,4662,0,-.65E-6,0
NAVSTAR 57 (USA 183),2005-038A,2026-07-02T19:26:11.143680,2.00564684,.01280767,54.8653,272.5467,296.2867,65.7673,0,U,28874,999,15215,0,-.14E-6,0
SYRACUSE 3A,2005-041B,2026-07-04T03:00:38.581920,1.00269188,.00027368,4.6845,75.6297,17.2174,281.0971,0,U,28885,999,7591,0,.139E-5,0
BEIJING 1,2005-043A,2026-07-04T07:27:55.778400,14.63541668,.00135724,98.2941,318.6207,225.0804,134.9297,0,U,28890,999,10315,.27692756E-4,.94E-6,0
SINAH 1,2005-043D,2026-07-03T20:46:24.826368,14.64169529,.00136116,98.2883,319.2875,220.0634,139.9566,0,U,28893,999,10296,.90309708E-4,.426E-5,0
CUBESAT XI-V,2005-043F,2026-07-04T04:26:34.447488,14.72679968,.00147858,98.3004,341.1656,147.6619,212.5497,0,U,28895,999,10425,.28127005E-3,.1743E-4,0
INMARSAT 4-F2,2005-044A,2026-07-03T13:07:51.549888,1.00269985,.00031195,5.1157,43.6643,50.9964,167.3520,0,U,28899,999,7568,0,-.252E-5,0
COSMOS 2416 (RODNIK-S 1),2005-048A,2026-07-04T05:45:30.611232,12.55600830,.0009095,82.4699,296.7536,129.1223,253.9656,0,U,28908,999,94104,.17033888E-3,.38E-6,0
METEOSAT-9 (MSG-2),2005-049B,2026-07-03T17:34:30.353664,1.00267681,.00024606,9.3963,54.0026,0.5032,176.6249,0,U,28912,999,716,0,.132E-5,0
EUTELSAT 174A,2005-052A,2026-07-03T21:36:21.136032,1.00269410,.00061159,4.2582,76.3250,27.5980,316.0870,0,U,28924,999,5249,0,.18E-6,0
ECHOSTAR 10,2006-003A,2026-07-04T04:48:33.232032,1.00272292,.00015997,0.0285,316.2187,110.7769,177.1782,0,U,28935,999,7463,0,-.44E-6,0
SPAINSAT,2006-007A,2026-07-03T07:15:38.083968,1.00273001,.00050245,0.6024,86.2921,13.6601,260.1006,0,U,28945,999,7438,0,-.206E-5,0
JCSAT-5A,2006-010A,2026-07-04T05:57:42.503904,1.00272138,.00020562,1.1510,84.0570,9.8159,49.8629,0,U,29045,999,7394,0,-.316E-5,0
ASTRA 1KR,2006-012A,2026-07-04T05:25:25.020192,1.00271980,.00036172,0.5151,83.2311,13.9682,285.3839,0,U,29055,999,4586,0,.131E-5,0
RESURS-DK 1,2006-021A,2026-07-03T10:17:13.903296,15.13284279,.00066893,69.9339,297.5099,283.9720,76.0702,0,U,29228,999,10503,.14399856E-3,.2461E-4,0
GALAXY 16 (G-16),2006-023A,2026-07-04T04:51:47.920608,1.00271531,.00026734,0.0257,135.6290,324.4587,156.0812,0,U,29236,999,7314,0,-.115E-5,0
ARIRANG-2 (KOMPSAT-2),2006-031A,2026-07-04T07:34:14.153376,14.64670098,.00151743,97.8307,8.9327,24.4736,99.2683,0,U,29268,999,6398,.47323517E-4,.207E-5,0
EUTELSAT 33F,2006-032A,2026-07-04T05:29:24.637632,1.00273488,.00036238,1.7028,82.0661,20.7124,294.8974,0,U,29270,999,4747,0,.167E-5,0
JCSAT-3A,2006-033A,2026-07-04T05:56:27.623616,1.00271862,.00024279,0.0111,9.7107,100.9432,28.7192,0,U,29272,999,4791,0,-.333E-5,0
KOREASAT 5 (MUGUNGWHA 5),2006-034A,2026-07-02T16:30:07.388064,1.00269004,.0002051,1.8228,82.8123,60.3329,138.1480,0,U,29349,999,4147,0,-.348E-5,0
HINODE (SOLAR-B),2006-041A,2026-07-04T06:52:21.063360,14.68647363,.00162625,98.0545,201.1867,230.7441,129.2322,0,U,29479,999,5738,.1563309E-3,.862E-5,0
NAVSTAR 58 (USA 190),2006-042A,2026-07-03T23:04:14.105568,2.00568928,.01069463,54.7124,150.6730,54.8662,317.3308,0,U,29486,999,14473,0,.65E-6,0
DIRECTV 9S,2006-043A,2026-07-04T04:51:10.480896,1.00271693,.0005313,2.4619,80.7060,25.5685,147.5399,0,U,29494,999,5155,0,-.102E-5,0
OPTUS D1,2006-043B,2026-07-03T21:30:06.733728,1.00272734,.00037191,3.0750,79.4598,19.0025,297.9475,0,U,29495,999,7228,0,-.173E-5,0
SHIJIAN-6 02A (SJ-6 02A),2006-046A,2026-07-04T07:22:13.657728,15.17142884,.00047656,97.6349,226.5033,88.1697,272.0082,0,U,29505,999,7486,.33634662E-3,.6607E-4,0
SHIJIAN-6 02B (SJ-6 02B),2006-046B,2026-07-04T08:11:10.399776,15.01419390,.00147491,97.7147,214.2940,11.2798,348.8754,0,U,29506,999,7331,.11827057E-3,.1468E-4,0
DMSP 5D-3 F17 (USA 191),2006-050A,2026-07-04T06:45:48.835872,14.14995289,.00103859,98.7381,191.5022,13.9923,346.1537,0,U,29522,999,1484,.4837282E-4,.5E-6,0
BADR-4,2006-051A,2026-07-04T05:29:47.101632,1.00271743,.00052105,2.0460,80.9472,21.5966,296.5720,0,U,29526,999,5143,0,.167E-5,0
NAVSTAR 59 (USA 192),2006-052A,2026-07-02T09:01:37.111008,2.00559043,.0084872,54.9335,213.4040,90.9430,270.0973,0,U,29601,999,14371,0,.66E-6,0
WILDBLUE-1,2006-054A,2026-07-04T04:20:17.034144,1.00272081,.00015457,2.8441,80.2760,18.1372,137.6392,0,U,29643,999,5396,0,-.38E-6,0
LAPAN-TUBSAT,2007-001A,2026-07-04T06:58:43.995936,14.85968083,.0013252,98.1344,184.9009,125.9217,234.3229,0,U,29709,999,5369,.98818654E-4,.806E-5,0
THEMIS A,2007-004A,2026-06-28T20:14:59.599104,0.87843945,.83638757,8.5245,108.7424,201.4640,70.5505,0,U,30580,999,4138,-.24643218E-3,-.528E-5,0
SKYNET 5A,2007-007B,2026-07-02T16:22:04.107936,1.00269282,.00037672,5.3389,73.5528,33.4861,154.3837,0,U,30794,999,7085,0,-.263E-5,0
THEMIS D,2007-004D,2026-06-17T03:32:48.469344,0.87589082,.83319779,7.6675,80.4898,230.8824,268.0937,0,U,30797,999,4107,0,-.39E-5,0
THEMIS E,2007-004E,2026-07-03T23:29:48.598080,0.88041892,.84370487,6.5283,97.0944,218.5458,13.1584,0,U,30798,999,6606,0,-.4E-5,0
ANIK F3,2007-009A,2026-07-04T04:46:10.959744,1.00271485,.00027656,1.2388,83.6634,20.5260,130.8534,0,U,31102,999,4673,0,.11E-6,0
HAIYANG-1B,2007-010A,2026-07-04T04:55:39.194400,14.31031222,.00141181,98.3505,166.3911,146.3401,213.8683,0,U,31113,999,307,.58815291E-4,.113E-5,0
SAUDISAT 3,2007-012B,2026-07-04T02:57:23.638464,14.71435564,.001482,98.1462,135.5356,168.4720,191.6829,0,U,31118,999,3023,.61743289E-4,.332E-5,0
SAUDICOMSAT 7,2007-012C,2026-07-04T04:11:46.518144,14.66127864,.00564668,98.3788,159.6549,142.1645,218.3548,0,U,31119,999,2492,.12979175E-3,.677E-5,0
SAUDICOMSAT 6,2007-012E,2026-07-03T20:26:08.448288,14.62576721,.0070381,98.4107,152.6789,275.0888,84.2283,0,U,31121,999,2262,.1173435E-3,.563E-5,0
SAUDICOMSAT 5,2007-012H,2026-07-04T04:37:26.600736,14.68180914,.00486764,98.3500,160.4166,72.6123,288.0396,0,U,31124,999,2609,.1610575E-3,.89E-5,0
SAUDICOMSAT 3,2007-012J,2026-07-03T22:04:11.524512,14.70735820,.00391318,98.3153,160.6851,1.1856,358.9436,0,U,31125,999,2728,.17942771E-3,.1053E-4,0
SAUDICOMSAT 4,2007-012L,2026-07-03T11:36:35.395200,14.64527296,.00627415,98.3993,157.3874,206.4516,153.3479,0,U,31127,999,2367,.10513374E-3,.519E-5,0
ASTRA 1L,2007-016A,2026-07-04T05:13:03.703872,1.00271296,.00055874,1.3630,81.4592,24.0418,230.5044,0,U,31306,999,4515,0,-.173E-5,0
